start=new Date('2022-07-27T00:00:00.000Z').valueOf();
sats=[{"LAUNCH_DATE":"2021-03-04","SITE":"AFETR","MEAN_MOTION_DDOT":"0.0000000000000","CENTER_NAME":"EARTH","OBJECT_TYPE":"PAYLOAD","EPHEMERIS_TYPE":"0","CLASSIFICATION_TYPE":"U","MEAN_MOTION_DOT":"0.00000630","INCLINATION":"53.0547","REF_FRAME":"TEME","OBJECT_NAME":"STARLINK-2107","COUNTRY_CODE":"US","ECCENTRICITY":"0.00012890","OBJECT_ID":"2021-017B","MEAN_MOTION":"15.06397036","ARG_OF_PERICENTER":"88.1230","ELEMENT_SET_NO":"999","TLE_LINE1":"1 47723U 21017B   22207.71288411  .00000630  00000-0  61208-4 0  9999","MEAN_ANOMALY":"271.9906","EPOCH":"2022-07-26T17:06:33.187104","DECAY_DATE":null,"PERIAPSIS":"546.330","NORAD_CAT_ID":"47723","PERIOD":"95.592","REV_AT_EPOCH":"7961","BSTAR":"0.00006120800000","TLE_LINE2":"2 47723  53.0547 306.2144 0001289  88.1230 271.9906 15.06397036 79618","SEMIMAJOR_AXIS":"6925.358","FILE":"3522469","TIME_SYSTEM":"UTC","RCS_SIZE":"LARGE","RA_OF_ASC_NODE":"306.2144","APOAPSIS":"548.115","GP_ID":"208929847","MEAN_ELEMENT_THEORY":"SGP4"},{"EPOCH":"2022-07-26T13:12:59.904576","DECAY_DATE":null,"PERIAPSIS":"546.344","PERIOD":"95.592","NORAD_CAT_ID":"47724","ELEMENT_SET_NO":"999","TLE_LINE1":"1 47724U 21017C   22207.55069334  .00005806  00000-0  40827-3 0  9996","MEAN_ANOMALY":"279.8491","RA_OF_ASC_NODE":"306.9391","RCS_SIZE":"LARGE","TIME_SYSTEM":"UTC","FILE":"3522226","GP_ID":"208899037","APOAPSIS":"548.037","MEAN_ELEMENT_THEORY":"SGP4","BSTAR":"0.00040827000000","REV_AT_EPOCH":"7955","TLE_LINE2":"2 47724  53.0547 306.9391 0001222  80.2636 279.8491 15.06407470 79553","SEMIMAJOR_AXIS":"6925.326","OBJECT_TYPE":"PAYLOAD","EPHEMERIS_TYPE":"0","CLASSIFICATION_TYPE":"U","LAUNCH_DATE":"2021-03-04","SITE":"AFETR","MEAN_MOTION_DDOT":"0.0000000000000","CENTER_NAME":"EARTH","OBJECT_ID":"2021-017C","ECCENTRICITY":"0.00012220","ARG_OF_PERICENTER":"80.2636","MEAN_MOTION":"15.06407470","MEAN_MOTION_DOT":"0.00005806","REF_FRAME":"TEME","INCLINATION":"53.0547","OBJECT_NAME":"STARLINK-2116","COUNTRY_CODE":"US"},{"MEAN_ANOMALY":"280.6037","ELEMENT_SET_NO":"999","TLE_LINE1":"1 47725U 21017D   22207.78382795  .00001363  00000-0  11036-3 0  9995","PERIAPSIS":"546.295","PERIOD":"95.592","NORAD_CAT_ID":"47725","EPOCH":"2022-07-26T18:48:42.734880","DECAY_DATE":null,"BSTAR":"0.00011036000000","REV_AT_EPOCH":"7862","SEMIMAJOR_AXIS":"6925.342","TLE_LINE2":"2 47725  53.0551  15.8989 0001317  79.5100 280.6037 15.06402221 78622","MEAN_ELEMENT_THEORY":"SGP4","RA_OF_ASC_NODE":"15.8989","RCS_SIZE":"LARGE","TIME_SYSTEM":"UTC","FILE":"3522469","GP_ID":"208928345","APOAPSIS":"548.119","CENTER_NAME":"EARTH","LAUNCH_DATE":"2021-03-04","MEAN_MOTION_DDOT":"0.0000000000000","SITE":"AFETR","OBJECT_TYPE":"PAYLOAD","CLASSIFICATION_TYPE":"U","EPHEMERIS_TYPE":"0","REF_FRAME":"TEME","INCLINATION":"53.0551","OBJECT_NAME":"STARLINK-2125","COUNTRY_CODE":"US","MEAN_MOTION_DOT":"0.00001363","OBJECT_ID":"2021-017D","ECCENTRICITY":"0.00013170","ARG_OF_PERICENTER":"79.5100","MEAN_MOTION":"15.06402221"},{"MEAN_MOTION_DOT":"-0.00000904","OBJECT_NAME":"STARLINK-2126","COUNTRY_CODE":"US","REF_FRAME":"TEME","INCLINATION":"53.0566","ARG_OF_PERICENTER":"63.7056","MEAN_MOTION":"15.06392867","OBJECT_ID":"2021-017E","ECCENTRICITY":"0.00018700","SITE":"AFETR","MEAN_MOTION_DDOT":"0.0000000000000","LAUNCH_DATE":"2021-03-04","CENTER_NAME":"EARTH","CLASSIFICATION_TYPE":"U","EPHEMERIS_TYPE":"0","OBJECT_TYPE":"PAYLOAD","TLE_LINE2":"2 47726  53.0566  15.6542 0001870  63.7056 296.4125 15.06392867 78628","SEMIMAJOR_AXIS":"6925.370","BSTAR":"-0.00004181900000","REV_AT_EPOCH":"7862","GP_ID":"208929597","APOAPSIS":"548.530","RA_OF_ASC_NODE":"15.6542","RCS_SIZE":"LARGE","TIME_SYSTEM":"UTC","FILE":"3522469","MEAN_ELEMENT_THEORY":"SGP4","TLE_LINE1":"1 47726U 21017E   22207.83543598 -.00000904  00000-0 -41819-4 0  9997","ELEMENT_SET_NO":"999","MEAN_ANOMALY":"296.4125","DECAY_DATE":null,"EPOCH":"2022-07-26T20:03:01.668672","PERIOD":"95.593","NORAD_CAT_ID":"47726","PERIAPSIS":"545.940"},{"OBJECT_TYPE":"PAYLOAD","EPHEMERIS_TYPE":"0","CLASSIFICATION_TYPE":"U","LAUNCH_DATE":"2021-03-04","MEAN_MOTION_DDOT":"0.0000000000000","SITE":"AFETR","CENTER_NAME":"EARTH","ECCENTRICITY":"0.00012020","OBJECT_ID":"2021-017F","MEAN_MOTION":"15.06407750","ARG_OF_PERICENTER":"62.1067","MEAN_MOTION_DOT":"0.00000775","INCLINATION":"53.0549","REF_FRAME":"TEME","COUNTRY_CODE":"US","OBJECT_NAME":"STARLINK-2129","EPOCH":"2022-07-26T12:30:29.866464","DECAY_DATE":null,"PERIAPSIS":"546.357","NORAD_CAT_ID":"47727","PERIOD":"95.592","ELEMENT_SET_NO":"999","TLE_LINE1":"1 47727U 21017F   22207.52117901  .00000775  00000-0  70870-4 0  9992","MEAN_ANOMALY":"298.0044","TIME_SYSTEM":"UTC","FILE":"3522226","RCS_SIZE":"LARGE","RA_OF_ASC_NODE":"297.0783","APOAPSIS":"548.022","GP_ID":"208898785","MEAN_ELEMENT_THEORY":"SGP4","REV_AT_EPOCH":"7973","BSTAR":"0.00007087000000","SEMIMAJOR_AXIS":"6925.325","TLE_LINE2":"2 47727  53.0549 297.0783 0001202  62.1067 298.0044 15.06407750 79736"},{"MEAN_ELEMENT_THEORY":"SGP4","TIME_SYSTEM":"UTC","FILE":"3522469","RCS_SIZE":"LARGE","RA_OF_ASC_NODE":"15.4763","APOAPSIS":"548.195","GP_ID":"208928095","REV_AT_EPOCH":"7869","BSTAR":"0.00001246400000","TLE_LINE2":"2 47728  53.0546  15.4763 0001411  80.3139 279.8010 15.06398631 78699","SEMIMAJOR_AXIS":"6925.353","PERIAPSIS":"546.241","NORAD_CAT_ID":"47728","PERIOD":"95.592","EPOCH":"2022-07-26T21:01:24.232224","DECAY_DATE":null,"MEAN_ANOMALY":"279.8010","ELEMENT_SET_NO":"999","TLE_LINE1":"1 47728U 21017G   22207.87597491 -.00000096  00000-0  12464-4 0  9999","ECCENTRICITY":"0.00014110","OBJECT_ID":"2021-017G","MEAN_MOTION":"15.06398631","ARG_OF_PERICENTER":"80.3139","INCLINATION":"53.0546","REF_FRAME":"TEME","COUNTRY_CODE":"US","OBJECT_NAME":"STARLINK-2131","MEAN_MOTION_DOT":"-0.00000096","OBJECT_TYPE":"PAYLOAD","CLASSIFICATION_TYPE":"U","EPHEMERIS_TYPE":"0","CENTER_NAME":"EARTH","LAUNCH_DATE":"2021-03-04","SITE":"AFETR","MEAN_MOTION_DDOT":"0.0000000000000"},{"NORAD_CAT_ID":"47729","PERIOD":"95.593","PERIAPSIS":"546.297","DECAY_DATE":null,"EPOCH":"2022-07-26T15:21:06.573888","MEAN_ANOMALY":"263.3741","TLE_LINE1":"1 47729U 21017H   22207.63965942  .00000674  00000-0  64178-4 0  9994","ELEMENT_SET_NO":"999","MEAN_ELEMENT_THEORY":"SGP4","APOAPSIS":"548.210","GP_ID":"208928846","FILE":"3522469","TIME_SYSTEM":"UTC","RCS_SIZE":"LARGE","RA_OF_ASC_NODE":"321.7441","SEMIMAJOR_AXIS":"6925.388","TLE_LINE2":"2 47729  53.0556 321.7441 0001381  96.7405 263.3741 15.06387095 79366","REV_AT_EPOCH":"7936","BSTAR":"0.00006417800000","CLASSIFICATION_TYPE":"U","EPHEMERIS_TYPE":"0","OBJECT_TYPE":"PAYLOAD","CENTER_NAME":"EARTH","MEAN_MOTION_DDOT":"0.0000000000000","SITE":"AFETR","LAUNCH_DATE":"2021-03-04","MEAN_MOTION":"15.06387095","ARG_OF_PERICENTER":"96.7405","ECCENTRICITY":"0.00013810","OBJECT_ID":"2021-017H","COUNTRY_CODE":"US","OBJECT_NAME":"STARLINK-2132","INCLINATION":"53.0556","REF_FRAME":"TEME","MEAN_MOTION_DOT":"0.00000674"},{"MEAN_ELEMENT_THEORY":"SGP4","APOAPSIS":"548.271","GP_ID":"208929097","FILE":"3522469","TIME_SYSTEM":"UTC","RA_OF_ASC_NODE":"30.6768","RCS_SIZE":"LARGE","SEMIMAJOR_AXIS":"6925.343","TLE_LINE2":"2 47730  53.0555  30.6768 0001535  73.5465 286.5693 15.06401710 78425","REV_AT_EPOCH":"7842","BSTAR":"0.00006695500000","NORAD_CAT_ID":"47730","PERIOD":"95.592","PERIAPSIS":"546.145","DECAY_DATE":null,"EPOCH":"2022-07-26T19:58:23.522880","MEAN_ANOMALY":"286.5693","TLE_LINE1":"1 47730U 21017J   22207.83221670  .00000716  00000-0  66955-4 0  9993","ELEMENT_SET_NO":"999","MEAN_MOTION":"15.06401710","ARG_OF_PERICENTER":"73.5465","ECCENTRICITY":"0.00015350","OBJECT_ID":"2021-017J","COUNTRY_CODE":"US","OBJECT_NAME":"STARLINK-2140","INCLINATION":"53.0555","REF_FRAME":"TEME","MEAN_MOTION_DOT":"0.00000716","EPHEMERIS_TYPE":"0","CLASSIFICATION_TYPE":"U","OBJECT_TYPE":"PAYLOAD","CENTER_NAME":"EARTH","MEAN_MOTION_DDOT":"0.0000000000000","SITE":"AFETR","LAUNCH_DATE":"2021-03-04"},{"RA_OF_ASC_NODE":"25.3501","RCS_SIZE":"LARGE","FILE":"3522469","TIME_SYSTEM":"UTC","GP_ID":"208929848","APOAPSIS":"548.355","MEAN_ELEMENT_THEORY":"SGP4","BSTAR":"-0.00003619300000","REV_AT_EPOCH":"7851","SEMIMAJOR_AXIS":"6925.361","TLE_LINE2":"2 47731  53.0561  25.3501 0001629  69.5749 290.5414 15.06395782 78510","EPOCH":"2022-07-26T21:42:32.745024","DECAY_DATE":null,"PERIAPSIS":"546.098","PERIOD":"95.592","NORAD_CAT_ID":"47731","ELEMENT_SET_NO":"999","TLE_LINE1":"1 47731U 21017K   22207.90454566 -.00000821  00000-0 -36193-4 0  9994","MEAN_ANOMALY":"290.5414","OBJECT_ID":"2021-017K","ECCENTRICITY":"0.00016290","ARG_OF_PERICENTER":"69.5749","MEAN_MOTION":"15.06395782","MEAN_MOTION_DOT":"-0.00000821","REF_FRAME":"TEME","INCLINATION":"53.0561","COUNTRY_CODE":"US","OBJECT_NAME":"STARLINK-2141","OBJECT_TYPE":"PAYLOAD","CLASSIFICATION_TYPE":"U","EPHEMERIS_TYPE":"0","LAUNCH_DATE":"2021-03-04","MEAN_MOTION_DDOT":"0.0000000000000","SITE":"AFETR","CENTER_NAME":"EARTH"},{"PERIAPSIS":"546.336","PERIOD":"95.592","NORAD_CAT_ID":"47732","EPOCH":"2022-07-26T14:41:17.803968","DECAY_DATE":null,"MEAN_ANOMALY":"262.7505","ELEMENT_SET_NO":"999","TLE_LINE1":"1 47732U 21017L   22207.61201162  .00001222  00000-0  10094-3 0  9990","MEAN_ELEMENT_THEORY":"SGP4","RCS_SIZE":"LARGE","RA_OF_ASC_NODE":"301.9081","FILE":"3522469","TIME_SYSTEM":"UTC","GP_ID":"208928596","APOAPSIS":"548.114","BSTAR":"0.00010094000000","REV_AT_EPOCH":"7965","SEMIMAJOR_AXIS":"6925.360","TLE_LINE2":"2 47732  53.0571 301.9081 0001284  97.3630 262.7505 15.06396186 79650","OBJECT_TYPE":"PAYLOAD","CLASSIFICATION_TYPE":"U","EPHEMERIS_TYPE":"0","CENTER_NAME":"EARTH","LAUNCH_DATE":"2021-03-04","MEAN_MOTION_DDOT":"0.0000000000000","SITE":"AFETR","OBJECT_ID":"2021-017L","ECCENTRICITY":"0.00012840","ARG_OF_PERICENTER":"97.3630","MEAN_MOTION":"15.06396186","REF_FRAME":"TEME","INCLINATION":"53.0571","COUNTRY_CODE":"US","OBJECT_NAME":"STARLINK-2142","MEAN_MOTION_DOT":"0.00001222"}];
